[{"OBJECT_NAME":"YAOGAN-30 05B","OBJECT_ID":"2018-011C","EPOCH":"2026-03-09T22:52:34.937760","MEAN_MOTION":15.02097859,"ECCENTRICITY":0.00016704,"INCLINATION":34.9964,"RA_OF_ASC_NODE":35.2967,"ARG_OF_PERICENTER":216.2291,"MEAN_ANOMALY":143.8304,"EPHEMERIS_TYPE":0,"CLASSIFICATION_TYPE":"U","NORAD_CAT_ID":43171,"ELEMENT_SET_NO":999,"REV_AT_EPOCH":44328,"BSTAR":0.00032774516,"MEAN_MOTION_DOT":4.367e-5,"MEAN_MOTION_DDOT":0},{"OBJECT_NAME":"STARLINK-6329","OBJECT_ID":"2023-065Y","EPOCH":"2026-03-09T10:52:18.509664","MEAN_MOTION":15.02546185,"ECCENTRICITY":0.00013203,"INCLINATION":43.0032,"RA_OF_ASC_NODE":211.2296,"ARG_OF_PERICENTER":265.0497,"MEAN_ANOMALY":95.0194,"EPHEMERIS_TYPE":0,"CLASSIFICATION_TYPE":"U","NORAD_CAT_ID":56525,"ELEMENT_SET_NO":999,"REV_AT_EPOCH":15659,"BSTAR":-0.00029726296,"MEAN_MOTION_DOT":-4.218e-5,"MEAN_MOTION_DDOT":0}]
